[{"OBJECT_NAME":"OBJECT N","OBJECT_ID":"2024-205N","EPOCH":"2026-03-09T22:36:13.267872","MEAN_MOTION":15.33862123,"ECCENTRICITY":0.00094432,"INCLINATION":97.4211,"RA_OF_ASC_NODE":148.9295,"ARG_OF_PERICENTER":39.7652,"MEAN_ANOMALY":320.4281,"EPHEMERIS_TYPE":0,"CLASSIFICATION_TYPE":"U","NORAD_CAT_ID":61906,"ELEMENT_SET_NO":999,"REV_AT_EPOCH":7364,"BSTAR":0.00078005624,"MEAN_MOTION_DOT":0.00025559,"MEAN_MOTION_DDOT":0},{"OBJECT_NAME":"STARLINK-36096","OBJECT_ID":"2025-286AA","EPOCH":"2026-03-09T23:23:50.261856","MEAN_MOTION":15.30214827,"ECCENTRICITY":0.0001305,"INCLINATION":53.1625,"RA_OF_ASC_NODE":356.8936,"ARG_OF_PERICENTER":111.6885,"MEAN_ANOMALY":248.4255,"EPHEMERIS_TYPE":0,"CLASSIFICATION_TYPE":"U","NORAD_CAT_ID":66949,"ELEMENT_SET_NO":999,"REV_AT_EPOCH":1546,"BSTAR":0.0012270777,"MEAN_MOTION_DOT":0.00036177,"MEAN_MOTION_DDOT":0}]
